ESTCUBE 1               
1 39161U 13021C   21085.44392232  .00000261  00000-0  48789-4 0  9991
2 39161  97.9401 168.5337 0010578  61.1200 299.1067 14.72444814423536
FENGYUN 3C              
1 39260U 13052A   21085.38291509 -.00000014  00000-0  14080-4 0  9997
2 39260  98.5107 129.8577 0012109 122.1110 238.1249 14.15862604388513
CASSIOPE                
1 39265U 13055A   21085.14702542  .00004714  00000-0  13171-3 0  9992
2 39265  80.9704  19.4988 0651356 198.1741 159.5156 14.31590575388079
ZACUBE-1 (TSHEPISOSAT)  
1 39417U 13066B   21084.49670210  .00000513  00000-0  69884-4 0  9992
2 39417  97.5876  73.2016 0060203  76.7185 284.0733 14.81457113396642
CINEMA-3 (KHUSAT-2)     
1 39426U 13066L   21085.33500622  .00000171  00000-0  34647-4 0  9994
2 39426  97.7462  41.4329 0102972 231.1487 128.0497 14.69647584393449
TRITON-1                
1 39427U 13066M   21084.42200119  .00000376  00000-0  67873-4 0  9996
2 39427  97.7661  36.3910 0111923 259.5741  99.2835 14.68185043392881
DELFI-N3XT              
1 39428U 13066N   21085.12417464  .00000638  00000-0  10878-3 0  9991
2 39428  97.7716  35.5034 0118401 270.3129  88.4510 14.67925794392749
GOMX-1                  
1 39430U 13066Q   21085.58286597  .00000483  00000-0  95734-4 0  9998
2 39430  97.8109  13.4199 0151293  16.3997 344.2014 14.59564833390950
BRITE-PL1 (LEM)         
1 39431U 13066R   21084.93016640  .00000061  00000-0  23150-4 0  9992
2 39431  97.7640 331.9537 0202136 176.6413 183.6194 14.47124490387497
ICUBE-1                 
1 39432U 13066S   21085.33355270  .00000717  00000-0  77669-4 0  9995
2 39432  97.4818 107.7247 0030757 322.5921  37.3157 14.90808773397927
HUMSAT-D                
1 39433U 13066T   21085.06654787  .00000676  00000-0  70161-4 0  9995
2 39433  97.4788 114.1972 0028931 302.6429  57.2000 14.92794398398304
VELOX-PII               
1 39438U 13066Y   21084.43009676  .00000378  00000-0  56775-4 0  9995
2 39438  97.6347  63.6623 0071676 118.3682 242.4781 14.78171601394669
FIRST-MOVE              
1 39439U 13066Z   21084.18551988  .00001020  00000-0  12859-3 0  9995
2 39439  97.5936  74.1707 0066414  75.9743 284.8843 14.82486225395467
CUBEBUG-2 (LO-74)       
1 39440U 13066AA  21085.14837457  .00000385  00000-0  59884-4 0  9995
2 39440  97.6676  58.6488 0080677 144.9231 215.7330 14.76189148394134
NEE-02 KRYSAOR          
1 39441U 13066AB  21085.35417651  .00000241  00000-0  41061-4 0  9998
2 39441  97.6768  56.2208 0082084 154.7670 205.7585 14.75143427393961
FUNCUBE-1 (AO-73)       
1 39444U 13066AE  21084.93691785  .00000639  00000-0  83823-4 0  9999
2 39444  97.5791  75.9649 0059214  66.3601 294.3814 14.82352532395066
HINCUBE                 
1 39445U 13066AF  21084.93536644  .00000608  00000-0  80302-4 0  9997
2 39445  97.5806  75.8185 0059258  68.0475 292.7022 14.82184461395016
UWE-3                   
1 39446U 13066AG  21084.45184778  .00000444  00000-0  64755-4 0  9994
2 39446  97.6295  65.0026 0071132 112.7106 248.1646 14.78723751394098
AIST-1 (RS-41)          
1 39492U 13078C   21085.57328066  .00000274  00000-0  27059-4 0  9999
2 39492  82.4183 304.9628 0020536 146.0642 214.1912 14.88004933393179
SPROUT                  
1 39770U 14029E   21085.58282816  .00001306  00000-0  14729-3 0  9994
2 39770  97.9053 196.9821 0010178 117.4619 242.7622 14.88271066371013
UNISAT-6                
1 40012U 14033C   21084.47695485  .00000358  00000-0  60081-4 0  9996
2 40012  97.6840 291.2750 0058331 170.5233 189.7092 14.74266965363828
BUGSAT-1 (TITA)         
1 40014U 14033E   21085.53558213  .00000547  00000-0  54355-4 0  9990
2 40014  98.1030  62.1716 0032674  80.0438 280.4478 14.95675736369172
DUCHIFAT-1              
1 40021U 14033M   21085.53603811  .00000801  00000-0  86242-4 0  9996
2 40021  97.9661  24.8877 0014313  78.5279 281.7546 14.91239498367923
NANOSATC-BR1            
1 40024U 14033Q   21085.25046854  .00000700  00000-0  77821-4 0  9997
2 40024  97.9463  19.9850 0013637  84.2850 275.9922 14.90353220367202
QB50P1                  
1 40025U 14033R   21085.24808759  .00000548  00000-0  63662-4 0  9995
2 40025  97.9295  15.7405 0013894  91.8363 268.4446 14.89369584367031
DTUSAT-2                
1 40030U 14033W   21085.56183379  .00000554  00000-0  64933-4 0  9999
2 40030  97.9136  12.8443 0013337  87.6143 272.6600 14.88928215366985
QB50P2                  
1 40032U 14033Y   21085.32099382  .00000547  00000-0  64237-4 0  9994
2 40032  97.9143  12.6090 0013303  89.1083 271.1658 14.88883268366923
POLYITAN-1              
1 40042U 14033AJ  21085.28886792  .00000803  00000-0  90886-4 0  9993
2 40042  97.9385  16.5170 0016088  83.4819 276.8229 14.89164944366932
TIGRISAT                
1 40043U 14033AK  21084.98874766  .00000271  00000-0  46944-4 0  9993
2 40043  97.6813 293.1526 0060087 166.9527 193.3254 14.74498857363536
AISAT                   
1 40054U 14034B   21084.95656227  .00000770  00000-0  11344-3 0  9992
2 40054  98.3097 235.3137 0011644 314.3809  45.6446 14.78333635363193
CANX-4                  
1 40055U 14034C   21085.32122441  .00000196  00000-0  37158-4 0  9995
2 40055  98.2911 224.5115 0013852 349.9939  10.0991 14.75025100362658
CANX-5                  
1 40056U 14034D   21084.98637413  .00000197  00000-0  37321-4 0  9990
2 40056  98.2910 224.1560 0013887 351.3453   8.7513 14.75016005353416
VELOX-I                 
1 40057U 14034E   21085.47451203  .00000557  00000-0  84633-4 0  9995
2 40057  98.3138 236.8578 0010022 329.2099  30.8535 14.78105437363284
METEOR-M 2              
1 40069U 14037A   21085.39989930 -.00000017  00000-0  11538-4 0  9991
2 40069  98.4710 117.7833 0005709 171.6722 188.4557 14.20682460348249
DX1                     
1 40071U 14037C   21085.57923125  .00000187  00000-0  31406-4 0  9991
2 40071  98.4580 285.6610 0007540 320.2401  39.8275 14.81469079363021
UKUBE-1                 
1 40074U 14037F   21085.54189848  .00000461  00000-0  61881-4 0  9992
2 40074  98.4401 296.5390 0003729 304.1552  55.9344 14.84492135363607
FIREBIRD 3              
1 40377U 15003B   21085.32995499  .00005871  00000-0  21564-3 0  9998
2 40377  99.0853 209.2632 0119966  91.5389 269.9588 15.21879390340142
FIREBIRD 4              
1 40378U 15003C   21085.30906830  .00005969  00000-0  21875-3 0  9991
2 40378  99.0857 209.3652 0120048  91.4292 270.0694 15.21927940340141
GRIFEX                  
1 40379U 15003D   21085.14431482  .00005077  00000-0  20619-3 0  9995
2 40379  99.0829 199.1928 0130375 122.4660 238.9252 15.17667520339546
CP10 (EXOCUBE)          
1 40380U 15003E   21085.34530704  .00003603  00000-0  15556-3 0  9993
2 40380  99.0854 194.1948 0135758 139.6216 221.5186 15.15403899339224
DEORBITSAIL             
1 40719U 15032E   21085.09694065  .00000672  00000-0  10161-3 0  9994
2 40719  97.8392 332.3094 0016983  21.9732 338.2203 14.77282367307677
NUDT-PHONESAT           
1 40900U 15049B   21085.57516497  .00005343  00000-0  21123-3 0  9999
2 40900  97.4251 100.2509 0013786  75.1939  46.3984 15.25822292306189
XW-2A                   
1 40903U 15049E   21085.60899044  .00004679  00000-0  10195-3 0  9996
2 40903  97.2471 140.3277 0011260 323.8504 190.2044 15.44707380310000
XW-2C                   
1 40906U 15049H   21085.57339865  .00001239  00000-0  66762-4 0  9996
2 40906  97.4869  88.9725 0016191 112.7684  35.6695 15.16571852305003
XW-2D                   
1 40907U 15049J   21085.58455999  .00001519  00000-0  80400-4 0  9991
2 40907  97.4851  88.7510 0015615 109.5535  38.3390 15.16871278305034
LILACSAT-2              
1 40908U 15049K   21085.57038779  .00000586  00000-0  35497-4 0  9993
2 40908  97.5042  86.7002 0017082 123.0341  34.0796 15.14338592304686
XW-2E                   
1 40909U 15049L   21085.53420940  .00002534  00000-0  12314-3 0  9992
2 40909  97.4677  92.6050 0015049  98.5288  20.9031 15.19255794305343
XW-2F                   
1 40910U 15049M   21085.57644543  .00002303  00000-0  11378-3 0  9998
2 40910  97.4739  91.7206 0016131  98.2940  21.9852 15.18757508305141
XW-2B                   
1 40911U 15049N   21085.58289306  .00001436  00000-0  76370-4 0  9992
2 40911  97.4857  89.4412 0015534 110.2206  37.8761 15.16789734304926
KAITUO 1B               
1 40912U 15049P   21085.58068882  .00002669  00000-0  12224-3 0  9993
2 40912  97.4483  96.0738 0016191  74.7231  52.5278 15.21258930305595
TIANWANG 1B (TW-1B)     
1 40927U 15051C   21085.23199196  .01125191  80951-3  11113-2 0  9995
2 40927  97.0219 146.0059 0003954 236.4231 164.8183 16.11531459311135
TIANWANG 1A (TW-1A)     
1 40928U 15051D   21085.59488344  .00006539  00000-0  14046-3 0  9997
2 40928  97.0856 112.5019 0008173 228.1495 254.4729 15.44982996308897
LAPAN-A2                
1 40931U 15052B   21082.63239245  .00000653  00000-0  18305-5 0  9993
2 40931   5.9960 144.5257 0012575 273.4576  86.4114 14.76666986296594
LQSAT                   
1 40958U 15057A   21085.61158921  .00000073  00000-0  18870-4 0  9991
2 40958  97.8127 145.1886 0017352 327.4203  32.5936 14.73163288294055
ATHENOXAT 1             
1 41168U 15077C   21085.34304542  .00003525  00000-0  14517-3 0  9997
2 41168  14.9849 151.8933 0009935  94.4850 348.3487 15.15371058292155
GALASSIA                
1 41170U 15077E   21085.32427259  .00003390  00000-0  13695-3 0  9995
2 41170  14.9880 142.9597 0012315 123.3209 236.8292 15.15614675292112
VELOX-II                
1 41171U 15077F   21084.68186820  .00002710  00000-0  11382-3 0  9996
2 41171  14.9903 202.1150 0008651 350.9569   9.0595 15.12344164291595
CHUBUSAT-2              
1 41338U 16012B   21084.98237709  .00000666  00000-0  44850-4 0  9992
2 41338  31.0043 356.6650 0013514  25.8961 334.2348 15.00474887280054
CHUBUSAT-3              
1 41339U 16012C   21085.14673559  .00000637  00000-0  42458-4 0  9999
2 41339  31.0135 352.9316 0013525  34.9148 325.2373 15.00627686280072
